#aV2011  1  9  0  0   .00000000      96 DD+AD WGS84 FIT  NGA
## 1618       .00000000   900.00000000 55570  .0000000000000
+   32     1  2  3  4  5  6  7  8  9 10 11 12 13 14 15 16 17
+         18 19 20 21 22 23 24 25 26 27 28 29 30 31 32  0  0
+          0  0  0  0  0  0  0  0  0  0  0  0  0  0  0  0  0
+          0  0  0  0  0  0  0  0  0  0  0  0  0  0  0  0  0
+          0  0  0  0  0  0  0  0  0  0  0  0  0  0  0  0  0
++         0  0  0  0  0  0  0  0  0  0  0  0  0  0  0  0  0
++         0  0  0  0  0  0  0  0  0  0  0  0  0  0  0  0  0
++         0  0  0  0  0  0  0  0  0  0  0  0  0  0  0  0  0
++         0  0  0  0  0  0  0  0  0  0  0  0  0  0  0  0  0
++         0  0  0  0  0  0  0  0  0  0  0  0  0  0  0  0  0
%c cc cc ccc ccc cccc cccc cccc cccc ccccc ccccc ccccc ccccc
%c cc cc ccc ccc cccc cccc cccc cccc ccccc ccccc ccccc ccccc
%f  0.0000000  0.000000000  0.00000000000  0.000000000000000
%f  0.0000000  0.000000000  0.00000000000  0.000000000000000
%i    0    0    0    0      0      0      0      0         0
%i    0    0    0    0      0      0      0      0         0
/*      NGA, ST. LOUIS,MO.                                  
/*   EPHEMERIS COMPUTED FROM  3 DAYS OF DATA                
/* CCCCCCCCCCCCCCCCCCCCCCCCCCCCCCCCCCCCCCCCCCCCCCCCCCCCCCCCC
/* CCCCCCCCCCCCCCCCCCCCCCCCCCCCCCCCCCCCCCCCCCCCCCCCCCCCCCCCC
*  2011  1  9 11 30   .00000000                                                 
P  1  11708.619781  10696.714865 -21435.269331   -198.587500                    
V  1 -23934.259637  12321.256998  -6833.511296      -.032398                    
P  2 -13504.721740 -12494.021382 -19303.434873    313.673381                    
V  2   2552.169166 -24364.382944  13500.130582       .022201                    
P  3  24612.434757   9855.101717   3035.585750    660.124842                    
V  3   2258.183100   5120.069305 -30501.450515       .051080                    
P  4  -8267.602451 -21407.540874 -13263.628364      4.075785                    
V  4   4126.553098 -16462.659317  24727.616668       .099649                    
P  5 -21940.475215  -1022.660764 -15023.498658    -96.108485                    
V  5  16139.304766 -10273.877106 -22795.159479      -.059504                    
P  6  22994.125481  13503.843883    293.013923    374.571183                    
V  6  -1612.231487   3050.504899 -31059.042163      -.052430                    
P  7   5971.515038 -25059.843296  -6009.209471      1.547883                    
V  7   1917.055332   7834.432462 -30931.208440       .005901                    
P  8    107.686572 -25658.894885   5632.426374      7.155449                    
V  8   3152.697908  -6827.835782 -31786.737384       .000264                    
P  9 -13575.034974  10746.038347  19597.179904     54.223645                    
V  9    111.528752 -26050.328597  13991.785379       .024596                    
P 10 -10040.071250 -12297.569121 -21533.506311    -62.751798                    
V 10  24264.503863 -11523.986054  -4410.125026      -.011389                    
P 11  13315.728267 -12543.827110  18843.077087   -117.881817                    
V 11   6598.252335  24222.015217  11632.817812      -.030044                    
P 12 -24273.580985  10486.687210   1306.318018    -37.342455                    
V 12    379.661010  -2991.401016  32086.420406       .033545                    
P 13   5480.047025 -14025.164463 -22009.463776    286.471331                    
V 13  21813.399094  16817.426521  -5362.241398      -.012058                    
P 14  11962.225363  19921.366184  13143.887812    122.395890                    
V 14 -13977.491288  -8598.733871  25939.766485       .029942                    
P 15 -20212.431376   1581.310256  17256.947133   -163.053899                    
V 15 -17385.287091 -13349.077425 -19000.498268       .039143                    
P 16  19473.059212   4344.428921 -17641.908064   -141.264913                    
V 16 -19828.104357  10329.066961 -19028.120759      -.030554                    
P 17 -10658.484056 -19874.680256  14326.600895    181.340240                    
V 17  15706.695301   8803.981697  23874.056007       .007058                    
P 18  -9210.554145  18226.639885  17083.479348    114.971703                    
V 18 -20342.344578   6905.878112 -19032.376036       .021123                    
P 19  21824.168648   4092.794134  14818.228111    -99.857972                    
V 19  13424.114892  13136.638890 -23078.331010      -.035453                    
P 20  22167.389441 -14296.784169  -2927.705807     48.830449                    
V 20   4869.977036   1547.265442  30911.679692      -.000860                    
P 21  -5129.420691  25307.397184  -4210.497594   -115.414357                    
V 21  -3773.265792  -6239.990370 -30865.650102      -.027100                    
P 22   3114.865367  15896.845836  21205.420355    155.431260                    
V 22 -24448.626100  10660.164521  -4528.637992      -.005282                    
P 23  16108.867825  -5986.863405 -20340.070525    333.237080                    
V 23  20739.011959  15231.142916  11615.684745      -.022437                    
P 24  14710.310801 -12406.120025  18256.027749    355.040387                    
V 24   -964.670277  23246.006828  16888.490069       .032228                    
P 25 -16249.292910  17425.725848 -11753.035398    -62.648107                    
V 25 -14340.411009   4665.313608  26773.500840      -.020472                    
P 26 -22733.135562 -11998.883790   6924.787137    -91.984548                    
V 26  -6450.556401  -7077.456424 -30480.009176      -.090568                    
P 27 -15031.647851   3239.494480  22311.808595    225.217734                    
V 27    163.727447 -26685.435246   4369.817702       .037722                    
P 28    945.613610 -16330.258191  21376.325983     13.656386                    
V 28  24074.696766  -9846.952252  -9070.643440       .019571                    
P 29  -7753.299097  13083.710484 -21697.146126    176.778352                    
V 29 -22536.728333 -16166.462628  -1653.230702       .027573                    
P 30  12059.224722  10665.921413 -21571.177081    311.960293                    
V 30 -22914.553411  13071.576578  -6465.638905       .032315                    
P 31   8469.586055  20101.992565 -14796.914342     27.773806                    
V 31  -3296.469662  19019.168326  23800.736993       .042438                    
P 32  25227.959897  -5932.843849   5049.460313   -171.326049                    
V 32  -4556.935855   5162.320996  31042.400195      -.080946                    
EOF
